start=new Date('2023-03-28T00:00:00.000Z').valueOf();
sats=[{"TLE_LINE1":"1 54800U 22175AU  23086.57243544  .00008466  00000-0  54993-3 0  9994","OBJECT_TYPE":"PAYLOAD","OBJECT_ID":"2022-175AU","BSTAR":"0.00054993000000","REF_FRAME":"TEME","PERIOD":"95.440","APOAPSIS":"540.836","EPHEMERIS_TYPE":"0","OBJECT_NAME":"STARLINK-5428","GP_ID":"228969651","MEAN_ELEMENT_THEORY":"SGP4","TLE_LINE2":"2 54800  53.2170 193.7149 0001417  69.0163 291.0980 15.08804060 15141","DECAY_DATE":null,"REV_AT_EPOCH":"1514","PERIAPSIS":"538.875","EPOCH":"2023-03-27T13:44:18.422016","CLASSIFICATION_TYPE":"U","MEAN_MOTION_DDOT":"0.0000000000000","LAUNCH_DATE":"2022-12-17","MEAN_MOTION":"15.08804060","FILE":"3872897","TIME_SYSTEM":"UTC","NORAD_CAT_ID":"54800","ELEMENT_SET_NO":"999","ECCENTRICITY":"0.00014170","MEAN_ANOMALY":"291.0980","COUNTRY_CODE":"US","ARG_OF_PERICENTER":"69.0163","MEAN_MOTION_DOT":"0.00008466","RA_OF_ASC_NODE":"193.7149","SITE":"AFETR","SEMIMAJOR_AXIS":"6917.990","INCLINATION":"53.2170","RCS_SIZE":"LARGE","CENTER_NAME":"EARTH"},{"FILE":"3872368","NORAD_CAT_ID":"54801","TIME_SYSTEM":"UTC","MEAN_MOTION":"15.08865043","LAUNCH_DATE":"2022-12-17","CLASSIFICATION_TYPE":"U","MEAN_MOTION_DDOT":"0.0000000000000","REV_AT_EPOCH":"1500","PERIAPSIS":"538.451","EPOCH":"2023-03-27T13:20:22.056576","CENTER_NAME":"EARTH","INCLINATION":"53.2161","RCS_SIZE":"LARGE","SITE":"AFETR","RA_OF_ASC_NODE":"203.6082","SEMIMAJOR_AXIS":"6917.804","ARG_OF_PERICENTER":"59.1457","MEAN_MOTION_DOT":"-0.00004249","ECCENTRICITY":"0.00017600","ELEMENT_SET_NO":"999","COUNTRY_CODE":"US","MEAN_ANOMALY":"300.9708","PERIOD":"95.436","APOAPSIS":"540.886","REF_FRAME":"TEME","OBJECT_TYPE":"PAYLOAD","BSTAR":"-0.00024881000000","OBJECT_ID":"2022-175AV","TLE_LINE1":"1 54801U 22175AV  23086.55581084 -.00004249  00000-0 -24881-3 0  9997","TLE_LINE2":"2 54801  53.2161 203.6082 0001760  59.1457 300.9708 15.08865043 15007","DECAY_DATE":null,"MEAN_ELEMENT_THEORY":"SGP4","OBJECT_NAME":"STARLINK-5429","GP_ID":"228931861","EPHEMERIS_TYPE":"0"},{"LAUNCH_DATE":"2022-12-17","MEAN_MOTION":"15.72375467","FILE":"3872915","NORAD_CAT_ID":"54802","TIME_SYSTEM":"UTC","REV_AT_EPOCH":"130","PERIAPSIS":"346.628","EPOCH":"2023-03-27T22:00:00.999936","CLASSIFICATION_TYPE":"U","MEAN_MOTION_DDOT":"0.0000000000000","RA_OF_ASC_NODE":"167.4428","SITE":"AFETR","SEMIMAJOR_AXIS":"6730.247","INCLINATION":"53.2138","RCS_SIZE":"LARGE","CENTER_NAME":"EARTH","ELEMENT_SET_NO":"999","ECCENTRICITY":"0.00081490","MEAN_ANOMALY":"313.7409","COUNTRY_CODE":"US","ARG_OF_PERICENTER":"277.5783","MEAN_MOTION_DOT":"-0.00062182","APOAPSIS":"357.596","PERIOD":"91.581","TLE_LINE1":"1 54802U 22175AW  23086.91667824 -.00062182  00000-0 -45672-3 0  9996","OBJECT_TYPE":"PAYLOAD","OBJECT_ID":"2022-175AW","BSTAR":"-0.00045672000000","REF_FRAME":"TEME","TLE_LINE2":"2 54802  53.2138 167.4428 0008149 277.5783 313.7409 15.72375467  1304","DECAY_DATE":null,"EPHEMERIS_TYPE":"0","OBJECT_NAME":"STARLINK-5426","GP_ID":"228996031","MEAN_ELEMENT_THEORY":"SGP4"},{"MEAN_ELEMENT_THEORY":"SGP4","GP_ID":"228995279","OBJECT_NAME":"STARLINK-5430","EPHEMERIS_TYPE":"0","TLE_LINE2":"2 54803  53.2168 202.5415 0001291  52.1171 307.9938 15.08900177 17203","DECAY_DATE":null,"REF_FRAME":"TEME","BSTAR":"0.00221150000000","OBJECT_TYPE":"PAYLOAD","OBJECT_ID":"2022-175AX","TLE_LINE1":"1 54803U 22175AX  23086.84382881  .00035142  00000-0  22115-2 0  9996","PERIOD":"95.434","APOAPSIS":"540.455","ARG_OF_PERICENTER":"52.1171","MEAN_MOTION_DOT":"0.00035142","ECCENTRICITY":"0.00012910","ELEMENT_SET_NO":"999","COUNTRY_CODE":"US","MEAN_ANOMALY":"307.9938","CENTER_NAME":"EARTH","INCLINATION":"53.2168","RCS_SIZE":"LARGE","SITE":"AFETR","RA_OF_ASC_NODE":"202.5415","SEMIMAJOR_AXIS":"6917.696","CLASSIFICATION_TYPE":"U","MEAN_MOTION_DDOT":"0.0000000000000","REV_AT_EPOCH":"1720","PERIAPSIS":"538.668","EPOCH":"2023-03-27T20:15:06.809184","FILE":"3872915","TIME_SYSTEM":"UTC","NORAD_CAT_ID":"54803","MEAN_MOTION":"15.08900177","LAUNCH_DATE":"2022-12-17"},{"EPHEMERIS_TYPE":"0","OBJECT_NAME":"STARLINK-5422","GP_ID":"228995529","MEAN_ELEMENT_THEORY":"SGP4","TLE_LINE2":"2 54804  53.2173 187.7923 0001838 120.8811 239.2362 15.08844932 17405","DECAY_DATE":null,"TLE_LINE1":"1 54804U 22175AY  23086.76143989  .00005960  00000-0  39220-3 0  9993","OBJECT_TYPE":"PAYLOAD","OBJECT_ID":"2022-175AY","BSTAR":"0.00039220000000","REF_FRAME":"TEME","PERIOD":"95.437","APOAPSIS":"541.002","ELEMENT_SET_NO":"999","ECCENTRICITY":"0.00018380","MEAN_ANOMALY":"239.2362","COUNTRY_CODE":"US","ARG_OF_PERICENTER":"120.8811","MEAN_MOTION_DOT":"0.00005960","RA_OF_ASC_NODE":"187.7923","SITE":"AFETR","SEMIMAJOR_AXIS":"6917.865","INCLINATION":"53.2173","RCS_SIZE":"LARGE","CENTER_NAME":"EARTH","REV_AT_EPOCH":"1740","EPOCH":"2023-03-27T18:16:28.406496","PERIAPSIS":"538.459","CLASSIFICATION_TYPE":"U","MEAN_MOTION_DDOT":"0.0000000000000","LAUNCH_DATE":"2022-12-17","MEAN_MOTION":"15.08844932","FILE":"3872915","NORAD_CAT_ID":"54804","TIME_SYSTEM":"UTC"},{"GP_ID":"228995781","OBJECT_NAME":"STARLINK-5417","EPHEMERIS_TYPE":"0","MEAN_ELEMENT_THEORY":"SGP4","TLE_LINE2":"2 54805  53.2187 187.8090 0001469 107.5564 252.5589 15.08830368 17401","DECAY_DATE":null,"TLE_LINE1":"1 54805U 22175AZ  23086.76512008  .00009673  00000-0  62514-3 0  9993","REF_FRAME":"TEME","BSTAR":"0.00062514000000","OBJECT_TYPE":"PAYLOAD","OBJECT_ID":"2022-175AZ","APOAPSIS":"540.791","PERIOD":"95.438","ECCENTRICITY":"0.00014690","ELEMENT_SET_NO":"999","COUNTRY_CODE":"US","MEAN_ANOMALY":"252.5589","ARG_OF_PERICENTER":"107.5564","MEAN_MOTION_DOT":"0.00009673","SITE":"AFETR","RA_OF_ASC_NODE":"187.8090","SEMIMAJOR_AXIS":"6917.910","CENTER_NAME":"EARTH","INCLINATION":"53.2187","RCS_SIZE":"LARGE","REV_AT_EPOCH":"1740","EPOCH":"2023-03-27T18:21:46.374912","PERIAPSIS":"538.759","CLASSIFICATION_TYPE":"U","MEAN_MOTION_DDOT":"0.0000000000000","MEAN_MOTION":"15.08830368","LAUNCH_DATE":"2022-12-17","FILE":"3872915","NORAD_CAT_ID":"54805","TIME_SYSTEM":"UTC"},{"NORAD_CAT_ID":"54806","TIME_SYSTEM":"UTC","FILE":"3872915","LAUNCH_DATE":"2022-12-17","MEAN_MOTION":"15.08829658","MEAN_MOTION_DDOT":"0.0000000000000","CLASSIFICATION_TYPE":"U","EPOCH":"2023-03-27T16:30:29.073600","PERIAPSIS":"538.528","REV_AT_EPOCH":"1739","INCLINATION":"53.2178","RCS_SIZE":"LARGE","CENTER_NAME":"EARTH","SEMIMAJOR_AXIS":"6917.912","RA_OF_ASC_NODE":"188.0458","SITE":"AFETR","MEAN_MOTION_DOT":"0.00003567","ARG_OF_PERICENTER":"57.8133","MEAN_ANOMALY":"302.3034","COUNTRY_CODE":"US","ELEMENT_SET_NO":"999","ECCENTRICITY":"0.00018060","APOAPSIS":"541.026","PERIOD":"95.438","BSTAR":"0.00024215000000","OBJECT_TYPE":"PAYLOAD","OBJECT_ID":"2022-175BA","REF_FRAME":"TEME","TLE_LINE1":"1 54806U 22175BA  23086.68783650  .00003567  00000-0  24215-3 0  9990","DECAY_DATE":null,"TLE_LINE2":"2 54806  53.2178 188.0458 0001806  57.8133 302.3034 15.08829658 17394","MEAN_ELEMENT_THEORY":"SGP4","EPHEMERIS_TYPE":"0","OBJECT_NAME":"STARLINK-5412","GP_ID":"228996531"},{"SITE":"AFETR","RA_OF_ASC_NODE":"187.7698","SEMIMAJOR_AXIS":"6917.881","CENTER_NAME":"EARTH","INCLINATION":"53.2187","RCS_SIZE":"LARGE","ECCENTRICITY":"0.00011340","ELEMENT_SET_NO":"999","COUNTRY_CODE":"US","MEAN_ANOMALY":"265.6067","ARG_OF_PERICENTER":"94.5055","MEAN_MOTION_DOT":"0.00006817","MEAN_MOTION":"15.08839694","LAUNCH_DATE":"2022-12-17","FILE":"3872915","NORAD_CAT_ID":"54807","TIME_SYSTEM":"UTC","REV_AT_EPOCH":"1740","EPOCH":"2023-03-27T18:11:09.749472","PERIAPSIS":"538.962","CLASSIFICATION_TYPE":"U","MEAN_MOTION_DDOT":"0.0000000000000","TLE_LINE2":"2 54807  53.2187 187.7698 0001134  94.5055 265.6067 15.08839694 17402","DECAY_DATE":null,"OBJECT_NAME":"STARLINK-5410","GP_ID":"228994780","EPHEMERIS_TYPE":"0","MEAN_ELEMENT_THEORY":"SGP4","PERIOD":"95.438","APOAPSIS":"540.531","TLE_LINE1":"1 54807U 22175BB  23086.75775173  .00006817  00000-0  44599-3 0  9998","REF_FRAME":"TEME","BSTAR":"0.00044599000000","OBJECT_TYPE":"PAYLOAD","OBJECT_ID":"2022-175BB"},{"PERIOD":"93.580","APOAPSIS":"450.392","TLE_LINE1":"1 54808U 22175BC  23086.91667824 -.00040455  00000-0 -10348-2 0  9992","REF_FRAME":"TEME","BSTAR":"-0.00103480000000","OBJECT_TYPE":"PAYLOAD","OBJECT_ID":"2022-175BC","TLE_LINE2":"2 54808  53.2159 176.6302 0001018  85.7162 287.7210 15.38787056  1307","DECAY_DATE":null,"OBJECT_NAME":"STARLINK-5413","GP_ID":"228995030","EPHEMERIS_TYPE":"0","MEAN_ELEMENT_THEORY":"SGP4","MEAN_MOTION":"15.38787056","LAUNCH_DATE":"2022-12-17","FILE":"3872915","NORAD_CAT_ID":"54808","TIME_SYSTEM":"UTC","REV_AT_EPOCH":"130","PERIAPSIS":"449.002","EPOCH":"2023-03-27T22:00:00.999936","CLASSIFICATION_TYPE":"U","MEAN_MOTION_DDOT":"0.0000000000000","SITE":"AFETR","RA_OF_ASC_NODE":"176.6302","SEMIMAJOR_AXIS":"6827.832","CENTER_NAME":"EARTH","RCS_SIZE":"LARGE","INCLINATION":"53.2159","ECCENTRICITY":"0.00010180","ELEMENT_SET_NO":"999","COUNTRY_CODE":"US","MEAN_ANOMALY":"287.7210","ARG_OF_PERICENTER":"85.7162","MEAN_MOTION_DOT":"-0.00040455"},{"FILE":"3872915","NORAD_CAT_ID":"54809","TIME_SYSTEM":"UTC","LAUNCH_DATE":"2022-12-17","MEAN_MOTION":"15.08829082","CLASSIFICATION_TYPE":"U","MEAN_MOTION_DDOT":"0.0000000000000","REV_AT_EPOCH":"1740","PERIAPSIS":"538.952","EPOCH":"2023-03-27T18:00:32.701536","INCLINATION":"53.2189","RCS_SIZE":"LARGE","CENTER_NAME":"EARTH","RA_OF_ASC_NODE":"187.7216","SITE":"AFETR","SEMIMAJOR_AXIS":"6917.914","ARG_OF_PERICENTER":"98.2264","MEAN_MOTION_DOT":"0.00010747","ELEMENT_SET_NO":"999","ECCENTRICITY":"0.00011950","MEAN_ANOMALY":"261.8864","COUNTRY_CODE":"US","APOAPSIS":"540.605","PERIOD":"95.438","OBJECT_TYPE":"PAYLOAD","OBJECT_ID":"2022-175BD","BSTAR":"0.00069248000000","REF_FRAME":"TEME","TLE_LINE1":"1 54809U 22175BD  23086.75037849  .00010747  00000-0  69248-3 0  9996","TLE_LINE2":"2 54809  53.2189 187.7216 0001195  98.2264 261.8864 15.08829082 17405","DECAY_DATE":null,"MEAN_ELEMENT_THEORY":"SGP4","EPHEMERIS_TYPE":"0","GP_ID":"228996281","OBJECT_NAME":"STARLINK-5414"}];
